{"type":"FeatureCollection","features":[{"type":"Feature","properties":{"pc_id":2801,"st_code":36,"st_name":"Telangana","pc_no":1,"pc_name":"Adilabad","pc_name_hi":"अदीलाबाद","pc_category":"ST","wikidata_qid":"Q3630014","status":null,"2019_election_phase":1,"2019_election_date":"2019-04-11"},"geometry":{"type":"MultiPolygon","coordinates":[[[[78.336,19.883],[78.381,19.881],[78.386,19.846],[78.402,19.833],[78.431,19.815],[78.472,19.818],[78.489,19.793],[78.507,19.797],[78.515,19.819],[78.552,19.824],[78.693,19.791],[78.719,19.767],[78.74,19.783],[78.757,19.772],[78.779,19.78],[78.803,19.756],[78.841,19.762],[78.86,19.69],[78.852,19.659],[78.887,19.655],[78.904,19.67],[78.956,19.656],[78.956,19.6],[78.973,19.583],[78.938,19.562],[78.941,19.552],[78.974,19.55],[78.981,19.561],[78.998,19.54],[79.046,19.549],[79.098,19.532],[79.19,19.459],[79.224,19.469],[79.204,19.494],[79.24,19.535],[79.237,19.557],[79.253,19.593],[79.239,19.606],[79.244,19.617],[79.273,19.599],[79.307,19.597],[79.314,19.567],[79.318,19.577],[79.366,19.577],[79.405,19.536],[79.433,19.537],[79.472,19.5],[79.519,19.52],[79.519,19.543],[79.54,19.555],[79.553,19.524],[79.596,19.507],[79.614,19.56],[79.629,19.574],[79.709,19.585],[79.743,19.609],[79.779,19.6],[79.816,19.574],[79.828,19.544],[79.865,19.511],[79.915,19.496],[79.945,19.47],[79.974,19.412],[79.98,19.389],[79.959,19.334],[79.966,19.304],[79.936,19.264],[79.925,19.226],[79.946,19.169],[79.914,19.146],[79.906,19.157],[79.854,19.167],[79.784,19.147],[79.762,19.18],[79.732,19.181],[79.703,19.2],[79.651,19.197],[79.624,19.221],[79.611,19.22],[79.601,19.238],[79.563,19.24],[79.547,19.263],[79.535,19.263],[79.516,19.251],[79.54,19.203],[79.481,19.201],[79.485,19.191],[79.474,19.186],[79.454,19.193],[79.416,19.176],[79.414,19.201],[79.338,19.222],[79.334,19.16],[79.31,19.159],[79.306,19.104],[79.269,19.113],[79.249,19.091],[79.234,19.096],[79.21,19.071],[79.203,19.044],[79.13,19.052],[79.153,19.073],[79.138,19.11],[79.104,19.081],[79.099,19.051],[79.079,19.035],[79.022,19.076],[78.952,19.077],[78.912,19.03],[78.845,19.07],[78.821,19.049],[78.779,19.038],[78.762,19.011],[78.692,19.033],[78.636,18.978],[78.606,18.985],[78.588,19.005],[78.557,18.978],[78.546,18.946],[78.528,18.949],[78.508,18.972],[78.457,18.956],[78.409,19.004],[78.371,18.996],[78.314,18.952],[78.285,18.943],[78.28,18.989],[78.24,19.016],[78.167,18.998],[78.15,18.968],[78.113,18.962],[78.09,18.94],[78.052,18.94],[78.038,18.877],[77.987,18.881],[77.948,18.845],[77.935,18.846],[77.93,18.86],[77.903,18.867],[77.904,18.882],[77.891,18.883],[77.885,18.906],[77.843,18.91],[77.858,18.95],[77.816,18.948],[77.821,18.98],[77.771,18.98],[77.765,19.063],[77.8,19.051],[77.797,19.073],[77.811,19.105],[77.831,19.086],[77.851,19.089],[77.834,19.135],[77.861,19.181],[77.848,19.19],[77.872,19.255],[77.903,19.257],[77.908,19.268],[77.904,19.278],[77.866,19.284],[77.864,19.304],[77.894,19.321],[77.912,19.316],[77.943,19.343],[78.014,19.294],[78.015,19.279],[78.042,19.271],[78.042,19.243],[78.055,19.237],[78.079,19.255],[78.089,19.24],[78.117,19.249],[78.144,19.23],[78.175,19.238],[78.177,19.279],[78.194,19.314],[78.172,19.35],[78.188,19.395],[78.176,19.412],[78.196,19.407],[78.22,19.433],[78.245,19.429],[78.271,19.456],[78.287,19.449],[78.306,19.461],[78.293,19.542],[78.274,19.554],[78.275,19.563],[78.294,19.559],[78.304,19.57],[78.306,19.607],[78.291,19.646],[78.263,19.665],[78.276,19.693],[78.312,19.691],[78.319,19.706],[78.343,19.713],[78.341,19.736],[78.365,19.781],[78.359,19.803],[78.334,19.815],[78.337,19.838],[78.3,19.841],[78.285,19.855],[78.307,19.914],[78.331,19.915],[78.325,19.895],[78.336,19.883]]]]}},{"type":"Feature","properties":{"pc_id":2802,"st_code":36,"st_name":"Telangana","pc_no":2,"pc_name":"Peddapalli","pc_name_hi":"पेड्डापल्ले","pc_category":"SC","wikidata_qid":"Q3764496","status":null,"2019_election_phase":1,"2019_election_date":"2019-04-11"},"geometry":{"type":"MultiPolygon","coordinates":[[[[79.541,19.262],[79.563,19.24],[79.601,19.238],[79.611,19.22],[79.624,19.221],[79.651,19.197],[79.703,19.2],[79.732,19.181],[79.762,19.18],[79.784,19.147],[79.846,19.167],[79.909,19.156],[79.914,19.146],[79.87,19.121],[79.858,19.096],[79.872,19.041],[79.922,19.05],[79.938,19.041],[79.963,18.866],[79.915,18.823],[79.963,18.775],[80.03,18.758],[80.053,18.725],[80.118,18.681],[80.158,18.701],[80.197,18.681],[80.213,18.706],[80.252,18.707],[80.272,18.724],[80.284,18.717],[80.345,18.597],[80.269,18.589],[80.23,18.553],[80.217,18.39],[80.173,18.349],[80.142,18.38],[80.151,18.414],[80.124,18.426],[80.099,18.432],[80.081,18.421],[80.074,18.388],[80.057,18.402],[80.023,18.406],[80.03,18.442],[80.046,18.429],[80.076,18.427],[80.114,18.457],[80.117,18.466],[80.052,18.481],[80.08,18.499],[80.086,18.519],[80.038,18.517],[79.985,18.501],[79.962,18.483],[79.958,18.512],[79.943,18.505],[79.879,18.525],[79.878,18.495],[79.894,18.468],[79.926,18.45],[79.911,18.414],[79.855,18.487],[79.8,18.469],[79.823,18.428],[79.819,18.41],[79.789,18.434],[79.773,18.434],[79.729,18.489],[79.681,18.494],[79.645,18.475],[79.622,18.485],[79.612,18.464],[79.602,18.473],[79.587,18.462],[79.588,18.446],[79.567,18.424],[79.577,18.405],[79.477,18.379],[79.443,18.409],[79.397,18.422],[79.311,18.476],[79.24,18.444],[79.216,18.53],[79.229,18.559],[79.187,18.606],[79.179,18.639],[79.159,18.639],[79.101,18.678],[79.084,18.65],[79.059,18.658],[79.046,18.633],[79.033,18.65],[79.02,18.65],[79.011,18.682],[79.014,18.749],[78.952,18.754],[78.991,18.769],[78.997,18.816],[79.026,18.853],[78.994,18.908],[79.018,18.921],[79.01,18.969],[79.02,18.992],[79.018,19.075],[79.079,19.035],[79.099,19.051],[79.104,19.081],[79.138,19.11],[79.153,19.073],[79.13,19.052],[79.203,19.044],[79.21,19.071],[79.234,19.096],[79.249,19.091],[79.269,19.113],[79.306,19.104],[79.31,19.159],[79.334,19.16],[79.338,19.222],[79.414,19.201],[79.421,19.175],[79.451,19.193],[79.484,19.19],[79.481,19.201],[79.54,19.203],[79.516,19.251],[79.541,19.262]]]]}},{"type":"Feature","properties":{"pc_id":2803,"st_code":36,"st_name":"Telangana","pc_no":3,"pc_name":"Karimnagar","pc_name_hi":"करीमनगर","pc_category":"GEN","wikidata_qid":"Q3764353","status":null,"2019_election_phase":1,"2019_election_date":"2019-04-11"},"geometry":{"type":"MultiPolygon","coordinates":[[[[78.833,18.802],[78.845,18.761],[78.873,18.745],[78.896,18.758],[78.917,18.731],[78.948,18.738],[78.952,18.754],[79.011,18.752],[79.012,18.67],[79.041,18.634],[79.063,18.66],[79.084,18.65],[79.101,18.678],[79.159,18.639],[79.179,18.639],[79.187,18.606],[79.229,18.559],[79.216,18.53],[79.24,18.444],[79.311,18.476],[79.397,18.422],[79.443,18.409],[79.477,18.379],[79.577,18.405],[79.576,18.309],[79.559,18.3],[79.563,18.263],[79.582,18.257],[79.578,18.242],[79.613,18.188],[79.602,18.142],[79.573,18.135],[79.581,18.121],[79.561,18.121],[79.552,18.1],[79.51,18.106],[79.488,18.098],[79.467,18.114],[79.446,18.067],[79.367,18.015],[79.3,18.025],[79.282,18.001],[79.262,18.003],[79.263,17.984],[79.192,18.002],[79.159,17.991],[79.108,18.013],[79.108,18.04],[79.099,18.047],[79.127,18.076],[79.049,18.082],[79.025,18.094],[79.036,18.121],[79.005,18.14],[79.014,18.166],[79.007,18.199],[78.955,18.208],[78.957,18.252],[78.915,18.256],[78.89,18.239],[78.856,18.235],[78.828,18.253],[78.769,18.263],[78.75,18.221],[78.728,18.215],[78.718,18.232],[78.69,18.23],[78.639,18.257],[78.628,18.247],[78.589,18.249],[78.568,18.223],[78.553,18.259],[78.521,18.279],[78.541,18.3],[78.537,18.318],[78.55,18.336],[78.533,18.361],[78.532,18.388],[78.565,18.391],[78.542,18.412],[78.554,18.431],[78.53,18.47],[78.552,18.504],[78.554,18.531],[78.57,18.544],[78.56,18.552],[78.597,18.551],[78.614,18.59],[78.657,18.593],[78.67,18.623],[78.633,18.674],[78.641,18.715],[78.623,18.729],[78.624,18.744],[78.647,18.774],[78.67,18.775],[78.679,18.795],[78.733,18.783],[78.76,18.799],[78.787,18.799],[78.798,18.817],[78.793,18.846],[78.826,18.89],[78.844,18.871],[78.833,18.802]]]]}},{"type":"Feature","properties":{"pc_id":2804,"st_code":36,"st_name":"Telangana","pc_no":4,"pc_name":"Nizamabad","pc_name_hi":"निजामाबाद","pc_category":"GEN","wikidata_qid":"Q3764335","status":null,"2019_election_phase":1,"2019_election_date":"2019-04-11"},"geometry":{"type":"MultiPolygon","coordinates":[[[[78.97,19.077],[79.017,19.073],[79.02,18.992],[79.01,18.969],[79.018,18.921],[78.994,18.908],[79.026,18.853],[78.997,18.816],[78.991,18.769],[78.954,18.757],[78.948,18.738],[78.928,18.73],[78.896,18.758],[78.873,18.745],[78.845,18.761],[78.83,18.815],[78.843,18.877],[78.826,18.89],[78.793,18.846],[78.798,18.817],[78.787,18.799],[78.76,18.799],[78.733,18.783],[78.679,18.795],[78.667,18.773],[78.647,18.774],[78.623,18.729],[78.641,18.717],[78.633,18.674],[78.67,18.623],[78.657,18.593],[78.615,18.591],[78.595,18.55],[78.564,18.555],[78.56,18.553],[78.57,18.544],[78.55,18.523],[78.534,18.463],[78.495,18.437],[78.446,18.474],[78.43,18.471],[78.409,18.484],[78.387,18.459],[78.264,18.457],[78.251,18.487],[78.206,18.497],[78.194,18.51],[78.154,18.488],[78.071,18.505],[78.043,18.487],[78.038,18.535],[78.051,18.569],[78.038,18.582],[78.043,18.604],[78.015,18.584],[77.994,18.627],[77.971,18.641],[77.963,18.644],[77.955,18.615],[77.918,18.597],[77.877,18.627],[77.83,18.628],[77.803,18.666],[77.783,18.669],[77.731,18.645],[77.73,18.667],[77.76,18.707],[77.787,18.683],[77.839,18.805],[77.907,18.828],[77.943,18.826],[77.959,18.863],[77.986,18.881],[78.037,18.877],[78.047,18.936],[78.089,18.94],[78.113,18.962],[78.147,18.966],[78.17,18.999],[78.247,19.016],[78.28,18.989],[78.285,18.943],[78.314,18.952],[78.371,18.996],[78.409,19.004],[78.457,18.956],[78.508,18.972],[78.528,18.949],[78.547,18.946],[78.557,18.978],[78.588,19.005],[78.606,18.985],[78.636,18.978],[78.666,19.015],[78.701,19.036],[78.762,19.011],[78.779,19.038],[78.821,19.049],[78.845,19.07],[78.914,19.031],[78.951,19.076],[78.97,19.077]]]]}},{"type":"Feature","properties":{"pc_id":2805,"st_code":36,"st_name":"Telangana","pc_no":5,"pc_name":"Zahirabad","pc_name_hi":"ज़हीराबाद सम्पादन","pc_category":"GEN","wikidata_qid":"Q8064692","status":null,"2019_election_phase":1,"2019_election_date":"2019-04-11"},"geometry":{"type":"MultiPolygon","coordinates":[[[[77.839,18.624],[77.877,18.627],[77.922,18.597],[77.955,18.615],[77.963,18.644],[77.994,18.627],[78.015,18.584],[78.043,18.604],[78.038,18.582],[78.051,18.569],[78.038,18.535],[78.043,18.487],[78.071,18.505],[78.154,18.488],[78.194,18.51],[78.206,18.497],[78.251,18.487],[78.264,18.457],[78.387,18.459],[78.406,18.484],[78.43,18.471],[78.446,18.474],[78.486,18.437],[78.543,18.46],[78.554,18.431],[78.542,18.412],[78.565,18.391],[78.532,18.388],[78.533,18.361],[78.55,18.336],[78.537,18.318],[78.541,18.3],[78.521,18.279],[78.553,18.258],[78.568,18.223],[78.569,18.181],[78.527,18.186],[78.516,18.167],[78.502,18.176],[78.484,18.149],[78.492,18.133],[78.48,18.126],[78.458,18.121],[78.442,18.13],[78.446,18.145],[78.433,18.163],[78.412,18.131],[78.385,18.124],[78.363,18.147],[78.358,18.172],[78.313,18.203],[78.314,18.179],[78.278,18.143],[78.257,18.14],[78.227,18.176],[78.216,18.176],[78.22,18.197],[78.207,18.217],[78.179,18.205],[78.169,18.168],[78.179,18.098],[78.145,18.071],[78.117,18.072],[78.106,18.094],[78.094,18.068],[78.074,18.071],[78.071,18.06],[78.044,18.08],[78.045,18.068],[78.035,18.065],[78.029,18.084],[78.011,18.09],[78.016,18.08],[78.013,18.076],[78.002,18.089],[77.993,18.053],[78.022,18.041],[78.024,18.018],[78.058,18.004],[78.058,17.987],[78.092,17.99],[78.089,17.966],[78.064,17.939],[78.058,17.916],[78.078,17.896],[78.077,17.868],[78.113,17.806],[78.116,17.734],[78.157,17.71],[78.151,17.658],[78.133,17.664],[78.112,17.651],[78.074,17.667],[78.057,17.656],[77.987,17.715],[77.937,17.724],[77.88,17.705],[77.879,17.696],[77.906,17.686],[77.868,17.625],[77.86,17.623],[77.855,17.644],[77.827,17.647],[77.816,17.627],[77.798,17.626],[77.784,17.639],[77.776,17.627],[77.747,17.625],[77.774,17.601],[77.761,17.558],[77.71,17.526],[77.691,17.527],[77.685,17.509],[77.662,17.523],[77.597,17.534],[77.594,17.565],[77.551,17.552],[77.537,17.575],[77.507,17.542],[77.494,17.568],[77.443,17.584],[77.456,17.632],[77.452,17.695],[77.546,17.727],[77.569,17.749],[77.569,17.766],[77.507,17.786],[77.529,17.813],[77.528,17.828],[77.554,17.82],[77.576,17.875],[77.599,17.873],[77.586,17.908],[77.619,17.904],[77.619,17.939],[77.633,17.947],[77.625,17.96],[77.633,17.967],[77.637,17.952],[77.65,17.95],[77.656,17.969],[77.649,17.999],[77.628,17.997],[77.606,18.02],[77.588,18.012],[77.581,18.031],[77.554,18.036],[77.548,18.056],[77.566,18.076],[77.597,18.087],[77.597,18.155],[77.581,18.163],[77.563,18.196],[77.585,18.22],[77.572,18.244],[77.605,18.281],[77.573,18.293],[77.559,18.286],[77.553,18.297],[77.571,18.318],[77.523,18.345],[77.526,18.373],[77.552,18.389],[77.557,18.417],[77.529,18.429],[77.528,18.442],[77.565,18.437],[77.586,18.447],[77.584,18.456],[77.549,18.468],[77.573,18.47],[77.577,18.487],[77.603,18.477],[77.605,18.496],[77.586,18.504],[77.6,18.523],[77.591,18.527],[77.596,18.549],[77.629,18.554],[77.634,18.544],[77.648,18.555],[77.656,18.531],[77.702,18.555],[77.739,18.557],[77.75,18.589],[77.731,18.644],[77.794,18.668],[77.81,18.663],[77.81,18.647],[77.839,18.624]]]]}},{"type":"Feature","properties":{"pc_id":2806,"st_code":36,"st_name":"Telangana","pc_no":6,"pc_name":"Medak","pc_name_hi":"मेडक","pc_category":"GEN","wikidata_qid":"Q3764036","status":null,"2019_election_phase":1,"2019_election_date":"2019-04-11"},"geometry":{"type":"MultiPolygon","coordinates":[[[[78.793,18.254],[78.828,18.253],[78.856,18.235],[78.89,18.239],[78.915,18.256],[78.957,18.252],[78.955,18.208],[79.007,18.199],[79.014,18.166],[79.005,18.14],[79.036,18.121],[79.025,18.094],[79.049,18.082],[79.127,18.076],[79.099,18.047],[79.109,18.039],[79.103,18.022],[79.089,18.028],[79.074,18.011],[79.041,18.032],[79.024,18.024],[79.014,18.003],[78.963,18.037],[78.944,17.998],[78.927,17.998],[78.907,17.961],[78.88,17.964],[78.872,17.956],[78.851,17.906],[78.827,17.893],[78.831,17.879],[78.868,17.869],[78.878,17.826],[78.868,17.825],[78.87,17.785],[78.858,17.749],[78.841,17.752],[78.822,17.74],[78.816,17.702],[78.782,17.711],[78.789,17.702],[78.777,17.692],[78.73,17.668],[78.705,17.686],[78.659,17.697],[78.65,17.677],[78.634,17.669],[78.593,17.697],[78.562,17.684],[78.519,17.702],[78.509,17.684],[78.494,17.695],[78.472,17.69],[78.449,17.708],[78.421,17.672],[78.395,17.676],[78.381,17.643],[78.391,17.622],[78.372,17.615],[78.39,17.599],[78.377,17.563],[78.355,17.562],[78.362,17.55],[78.337,17.504],[78.308,17.51],[78.318,17.495],[78.298,17.491],[78.302,17.461],[78.288,17.432],[78.264,17.428],[78.218,17.438],[78.212,17.487],[78.192,17.488],[78.191,17.477],[78.162,17.464],[78.145,17.471],[78.138,17.49],[78.118,17.483],[78.087,17.496],[78.081,17.517],[78.057,17.509],[78.066,17.494],[78.049,17.477],[78.062,17.472],[78.063,17.449],[78.048,17.451],[78.042,17.471],[78.023,17.465],[78.004,17.476],[78.007,17.496],[77.991,17.507],[77.981,17.484],[77.965,17.484],[77.974,17.519],[77.963,17.534],[77.937,17.539],[77.937,17.568],[77.873,17.583],[77.868,17.62],[77.862,17.613],[77.853,17.609],[77.823,17.632],[77.827,17.647],[77.85,17.644],[77.86,17.623],[77.868,17.625],[77.906,17.686],[77.879,17.696],[77.88,17.705],[77.937,17.724],[77.987,17.715],[78.057,17.656],[78.074,17.667],[78.112,17.651],[78.133,17.664],[78.151,17.658],[78.157,17.71],[78.116,17.734],[78.113,17.806],[78.077,17.868],[78.078,17.896],[78.058,17.916],[78.064,17.939],[78.089,17.966],[78.092,17.99],[78.055,17.989],[78.058,18.004],[78.026,18.016],[78.025,18.037],[77.993,18.053],[77.993,18.068],[78.002,18.089],[78.015,18.077],[78.012,18.09],[78.029,18.084],[78.035,18.065],[78.055,18.08],[78.071,18.06],[78.074,18.071],[78.097,18.07],[78.106,18.094],[78.117,18.072],[78.145,18.071],[78.18,18.098],[78.169,18.167],[78.18,18.205],[78.215,18.213],[78.216,18.176],[78.227,18.176],[78.257,18.14],[78.278,18.143],[78.314,18.179],[78.313,18.203],[78.358,18.172],[78.363,18.147],[78.384,18.124],[78.412,18.131],[78.433,18.163],[78.446,18.145],[78.442,18.13],[78.458,18.121],[78.492,18.133],[78.484,18.149],[78.502,18.176],[78.516,18.167],[78.522,18.183],[78.537,18.187],[78.566,18.177],[78.561,18.209],[78.589,18.249],[78.628,18.247],[78.642,18.256],[78.69,18.23],[78.718,18.232],[78.723,18.216],[78.735,18.215],[78.75,18.221],[78.769,18.263],[78.793,18.254]]]]}},{"type":"Feature","properties":{"pc_id":2807,"st_code":36,"st_name":"Telangana","pc_no":7,"pc_name":"Malkajgiri","pc_name_hi":"मल्काजगिरि","pc_category":"GEN","wikidata_qid":"Q6743862","status":null,"2019_election_phase":1,"2019_election_date":"2019-04-11"},"geometry":{"type":"MultiPolygon","coordinates":[[[[78.472,17.692],[78.494,17.695],[78.509,17.684],[78.519,17.702],[78.564,17.684],[78.593,17.697],[78.634,17.669],[78.67,17.698],[78.724,17.668],[78.711,17.64],[78.685,17.622],[78.702,17.612],[78.687,17.595],[78.691,17.585],[78.677,17.576],[78.706,17.558],[78.695,17.551],[78.712,17.521],[78.709,17.477],[78.717,17.469],[78.751,17.471],[78.76,17.46],[78.751,17.44],[78.756,17.411],[78.742,17.401],[78.736,17.377],[78.672,17.387],[78.619,17.36],[78.585,17.322],[78.511,17.316],[78.511,17.349],[78.527,17.344],[78.533,17.356],[78.525,17.362],[78.53,17.397],[78.519,17.407],[78.552,17.411],[78.543,17.419],[78.551,17.443],[78.537,17.436],[78.514,17.445],[78.495,17.422],[78.487,17.434],[78.48,17.426],[78.422,17.443],[78.402,17.438],[78.394,17.418],[78.365,17.439],[78.366,17.506],[78.347,17.522],[78.362,17.55],[78.355,17.562],[78.377,17.563],[78.389,17.595],[78.372,17.615],[78.391,17.622],[78.381,17.643],[78.388,17.662],[78.395,17.676],[78.421,17.672],[78.449,17.708],[78.472,17.692]]]]}},{"type":"Feature","properties":{"pc_id":2808,"st_code":36,"st_name":"Telangana","pc_no":8,"pc_name":"Secunderabad","pc_name_hi":"सिकन्दराबाद","pc_category":"GEN","wikidata_qid":"Q3764327","status":null,"2019_election_phase":1,"2019_election_date":"2019-04-11"},"geometry":{"type":"MultiPolygon","coordinates":[[[[78.461,17.437],[78.48,17.426],[78.487,17.434],[78.495,17.422],[78.514,17.445],[78.537,17.436],[78.55,17.443],[78.543,17.419],[78.552,17.411],[78.519,17.407],[78.532,17.377],[78.511,17.385],[78.473,17.368],[78.475,17.379],[78.43,17.386],[78.428,17.404],[78.4,17.394],[78.385,17.407],[78.402,17.438],[78.461,17.437]]]]}},{"type":"Feature","properties":{"pc_id":2809,"st_code":36,"st_name":"Telangana","pc_no":9,"pc_name":"Hyderabad","pc_name_hi":"हैदराबाद","pc_category":"GEN","wikidata_qid":"Q3764307","status":null,"2019_election_phase":1,"2019_election_date":"2019-04-11"},"geometry":{"type":"MultiPolygon","coordinates":[[[[78.429,17.397],[78.439,17.381],[78.475,17.379],[78.473,17.368],[78.511,17.385],[78.527,17.376],[78.533,17.353],[78.508,17.344],[78.511,17.309],[78.493,17.318],[78.472,17.308],[78.45,17.336],[78.456,17.356],[78.437,17.362],[78.435,17.373],[78.373,17.375],[78.382,17.394],[78.385,17.385],[78.423,17.403],[78.429,17.397]]]]}},{"type":"Feature","properties":{"pc_id":2810,"st_code":36,"st_name":"Telangana","pc_no":10,"pc_name":"Chevella","pc_name_hi":"चेवेल्ला","pc_category":"GEN","wikidata_qid":"Q5094314","status":null,"2019_election_phase":1,"2019_election_date":"2019-04-11"},"geometry":{"type":"MultiPolygon","coordinates":[[[[77.795,17.628],[77.823,17.632],[77.853,17.609],[77.868,17.62],[77.873,17.583],[77.93,17.572],[77.937,17.539],[77.968,17.53],[77.974,17.518],[77.965,17.484],[77.981,17.484],[77.991,17.507],[78.007,17.496],[78.004,17.476],[78.023,17.465],[78.042,17.471],[78.052,17.45],[78.07,17.455],[78.049,17.477],[78.064,17.486],[78.057,17.509],[78.07,17.519],[78.082,17.517],[78.087,17.496],[78.118,17.483],[78.138,17.49],[78.145,17.471],[78.162,17.464],[78.191,17.477],[78.192,17.488],[78.212,17.487],[78.218,17.438],[78.25,17.428],[78.288,17.432],[78.302,17.461],[78.298,17.491],[78.318,17.495],[78.308,17.511],[78.337,17.504],[78.347,17.522],[78.366,17.506],[78.365,17.439],[78.394,17.418],[78.385,17.407],[78.4,17.398],[78.386,17.385],[78.382,17.394],[78.373,17.375],[78.435,17.373],[78.437,17.362],[78.456,17.356],[78.45,17.336],[78.472,17.308],[78.527,17.316],[78.565,17.304],[78.556,17.244],[78.566,17.228],[78.532,17.211],[78.552,17.179],[78.567,17.18],[78.579,17.164],[78.558,17.111],[78.576,17.101],[78.577,17.048],[78.556,17.036],[78.579,17.022],[78.573,16.987],[78.563,16.978],[78.494,17.018],[78.48,16.995],[78.459,16.985],[78.456,16.999],[78.386,17.023],[78.367,17.064],[78.336,17.064],[78.351,17.067],[78.348,17.075],[78.359,17.071],[78.357,17.081],[78.341,17.084],[78.346,17.097],[78.334,17.104],[78.329,17.131],[78.301,17.134],[78.303,17.175],[78.289,17.187],[78.289,17.216],[78.279,17.223],[78.263,17.225],[78.256,17.2],[78.216,17.203],[78.208,17.174],[78.17,17.164],[78.163,17.144],[78.189,17.136],[78.184,17.114],[78.176,17.116],[78.175,17.089],[78.116,17.103],[78.102,17.088],[78.092,17.091],[78.094,17.101],[78.079,17.11],[78.082,17.127],[78.097,17.136],[78.083,17.179],[78.045,17.188],[78.044,17.169],[78.016,17.166],[78.004,17.148],[77.99,17.104],[77.954,17.099],[77.934,17.086],[77.949,17.076],[77.923,17.064],[77.935,17.028],[77.978,17.01],[77.997,16.991],[77.988,16.961],[78.011,16.95],[78.009,16.903],[77.981,16.892],[77.987,16.86],[77.978,16.847],[77.955,16.869],[77.922,16.845],[77.914,16.861],[77.864,16.851],[77.868,16.862],[77.857,16.854],[77.819,16.864],[77.822,16.884],[77.812,16.892],[77.796,16.874],[77.737,16.881],[77.746,16.911],[77.73,16.944],[77.76,16.973],[77.761,17.014],[77.777,17.022],[77.785,17.046],[77.751,17.064],[77.765,17.109],[77.776,17.113],[77.767,17.13],[77.787,17.17],[77.764,17.203],[77.79,17.234],[77.774,17.236],[77.759,17.222],[77.735,17.231],[77.738,17.182],[77.724,17.19],[77.724,17.208],[77.7,17.208],[77.699,17.177],[77.649,17.184],[77.614,17.169],[77.62,17.154],[77.586,17.152],[77.577,17.131],[77.547,17.141],[77.536,17.167],[77.489,17.178],[77.478,17.175],[77.473,17.142],[77.485,17.133],[77.466,17.107],[77.378,17.14],[77.378,17.153],[77.362,17.164],[77.372,17.196],[77.394,17.194],[77.404,17.21],[77.38,17.223],[77.408,17.241],[77.42,17.238],[77.426,17.257],[77.459,17.279],[77.438,17.292],[77.456,17.331],[77.454,17.374],[77.479,17.371],[77.475,17.362],[77.484,17.355],[77.524,17.364],[77.533,17.38],[77.524,17.388],[77.538,17.406],[77.514,17.414],[77.513,17.431],[77.538,17.444],[77.576,17.431],[77.576,17.456],[77.614,17.446],[77.615,17.473],[77.645,17.478],[77.657,17.506],[77.652,17.483],[77.689,17.476],[77.691,17.527],[77.71,17.526],[77.761,17.558],[77.774,17.601],[77.747,17.625],[77.776,17.627],[77.784,17.639],[77.795,17.628]]]]}},{"type":"Feature","properties":{"pc_id":2811,"st_code":36,"st_name":"Telangana","pc_no":11,"pc_name":"Mahabubnagar","pc_name_hi":"महबूबनगर","pc_category":"GEN","wikidata_qid":"Q3630208","status":null,"2019_election_phase":1,"2019_election_date":"2019-04-11"},"geometry":{"type":"MultiPolygon","coordinates":[[[[77.787,17.233],[77.788,17.221],[77.764,17.203],[77.787,17.17],[77.767,17.13],[77.776,17.113],[77.765,17.109],[77.751,17.064],[77.785,17.046],[77.777,17.022],[77.761,17.014],[77.76,16.973],[77.73,16.944],[77.746,16.911],[77.737,16.881],[77.796,16.874],[77.812,16.892],[77.822,16.884],[77.819,16.864],[77.84,16.857],[77.865,16.863],[77.864,16.851],[77.914,16.861],[77.922,16.845],[77.955,16.869],[77.978,16.847],[77.99,16.871],[77.979,16.877],[77.981,16.892],[78.009,16.903],[78.012,16.944],[77.988,16.961],[78,16.98],[77.992,16.996],[77.935,17.028],[77.923,17.064],[77.949,17.081],[77.934,17.086],[77.99,17.104],[78.004,17.148],[78.016,17.166],[78.044,17.169],[78.045,17.188],[78.083,17.179],[78.097,17.136],[78.082,17.127],[78.079,17.11],[78.094,17.101],[78.092,17.091],[78.102,17.088],[78.116,17.103],[78.177,17.089],[78.176,17.116],[78.184,17.114],[78.189,17.136],[78.163,17.144],[78.17,17.163],[78.208,17.174],[78.216,17.203],[78.256,17.2],[78.263,17.225],[78.275,17.224],[78.288,17.219],[78.289,17.187],[78.303,17.175],[78.301,17.134],[78.329,17.131],[78.334,17.104],[78.346,17.097],[78.341,17.084],[78.357,17.081],[78.359,17.071],[78.348,17.075],[78.351,17.067],[78.341,17.068],[78.336,17.064],[78.367,17.064],[78.381,17.028],[78.406,17.014],[78.384,16.954],[78.353,16.909],[78.37,16.902],[78.371,16.888],[78.319,16.876],[78.31,16.834],[78.326,16.795],[78.364,16.798],[78.383,16.789],[78.403,16.798],[78.415,16.828],[78.431,16.835],[78.43,16.789],[78.463,16.779],[78.482,16.758],[78.455,16.751],[78.452,16.731],[78.416,16.732],[78.418,16.687],[78.392,16.662],[78.365,16.663],[78.355,16.645],[78.319,16.654],[78.304,16.681],[78.276,16.688],[78.235,16.732],[78.198,16.747],[78.154,16.747],[78.15,16.736],[78.169,16.719],[78.14,16.688],[78.139,16.632],[78.121,16.592],[78.025,16.611],[77.979,16.58],[77.99,16.558],[77.985,16.541],[77.999,16.532],[77.989,16.52],[77.996,16.509],[77.891,16.501],[77.894,16.466],[77.916,16.454],[77.918,16.438],[77.973,16.409],[77.973,16.371],[77.989,16.333],[77.947,16.299],[77.981,16.276],[77.982,16.261],[77.958,16.243],[77.936,16.251],[77.918,16.238],[77.919,16.21],[77.778,16.303],[77.666,16.351],[77.623,16.354],[77.588,16.333],[77.594,16.344],[77.573,16.341],[77.523,16.376],[77.49,16.385],[77.441,16.381],[77.421,16.366],[77.378,16.386],[77.349,16.384],[77.288,16.409],[77.262,16.452],[77.236,16.473],[77.294,16.477],[77.299,16.496],[77.369,16.489],[77.377,16.513],[77.418,16.523],[77.418,16.549],[77.404,16.551],[77.393,16.57],[77.423,16.569],[77.439,16.587],[77.465,16.591],[77.468,16.61],[77.454,16.617],[77.473,16.652],[77.434,16.641],[77.419,16.669],[77.464,16.677],[77.474,16.716],[77.446,16.721],[77.438,16.712],[77.426,16.722],[77.443,16.763],[77.44,16.789],[77.467,16.781],[77.477,16.788],[77.457,16.83],[77.464,16.851],[77.454,16.914],[77.469,16.919],[77.465,16.957],[77.481,16.971],[77.48,16.996],[77.502,17.01],[77.481,17.079],[77.463,17.094],[77.485,17.133],[77.473,17.142],[77.478,17.175],[77.536,17.167],[77.547,17.141],[77.577,17.131],[77.586,17.152],[77.62,17.154],[77.614,17.169],[77.649,17.184],[77.699,17.177],[77.7,17.208],[77.724,17.208],[77.724,17.19],[77.738,17.182],[77.735,17.231],[77.759,17.222],[77.774,17.236],[77.787,17.233]]]]}},{"type":"Feature","properties":{"pc_id":2812,"st_code":36,"st_name":"Telangana","pc_no":12,"pc_name":"Nagarkurnool","pc_name_hi":"नगर कुरनूल","pc_category":"SC","wikidata_qid":"Q3630009","status":null,"2019_election_phase":1,"2019_election_date":"2019-04-11"},"geometry":{"type":"MultiPolygon","coordinates":[[[[78.55,16.987],[78.584,16.955],[78.615,16.965],[78.651,16.959],[78.682,16.933],[78.742,16.919],[78.727,16.87],[78.749,16.853],[78.772,16.883],[78.781,16.869],[78.776,16.844],[78.802,16.827],[78.789,16.762],[78.78,16.746],[78.757,16.748],[78.755,16.707],[78.741,16.707],[78.71,16.679],[78.714,16.651],[78.667,16.652],[78.716,16.582],[78.68,16.553],[78.669,16.572],[78.666,16.543],[78.638,16.55],[78.633,16.537],[78.613,16.532],[78.612,16.52],[78.645,16.535],[78.661,16.525],[78.681,16.54],[78.718,16.54],[78.765,16.534],[78.8,16.514],[78.855,16.551],[78.869,16.544],[78.91,16.551],[78.939,16.511],[79.047,16.459],[79.092,16.422],[79.152,16.4],[79.155,16.382],[79.203,16.363],[79.234,16.336],[79.22,16.23],[79.159,16.209],[79.122,16.233],[79.099,16.223],[79.011,16.24],[78.986,16.211],[78.905,16.183],[78.924,16.136],[78.921,16.102],[78.889,16.085],[78.873,16.144],[78.835,16.146],[78.837,16.071],[78.791,16.024],[78.741,16.009],[78.681,16.035],[78.65,16.079],[78.621,16.088],[78.602,16.084],[78.552,16.043],[78.477,16.068],[78.41,16.075],[78.366,16.047],[78.327,16.037],[78.312,16.012],[78.263,16.027],[78.252,15.937],[78.185,15.91],[78.18,15.902],[78.19,15.893],[78.175,15.858],[78.136,15.855],[78.134,15.837],[78.084,15.841],[78.072,15.862],[78.047,15.875],[78.045,15.904],[78.032,15.908],[78.009,15.862],[77.976,15.883],[77.936,15.884],[77.889,15.906],[77.86,15.885],[77.804,15.875],[77.724,15.896],[77.693,15.884],[77.659,15.886],[77.611,15.918],[77.593,15.912],[77.514,15.927],[77.514,16.008],[77.494,16.037],[77.507,16.08],[77.494,16.086],[77.501,16.107],[77.513,16.108],[77.49,16.12],[77.486,16.164],[77.501,16.222],[77.516,16.224],[77.492,16.23],[77.49,16.255],[77.505,16.276],[77.537,16.267],[77.545,16.292],[77.569,16.304],[77.598,16.293],[77.588,16.333],[77.623,16.354],[77.656,16.354],[77.778,16.303],[77.919,16.21],[77.918,16.238],[77.936,16.251],[77.958,16.243],[77.982,16.261],[77.981,16.276],[77.947,16.299],[77.989,16.333],[77.973,16.371],[77.973,16.409],[77.918,16.438],[77.916,16.454],[77.894,16.466],[77.891,16.501],[77.996,16.509],[77.989,16.52],[77.999,16.532],[77.985,16.541],[77.99,16.558],[77.979,16.58],[78.025,16.611],[78.121,16.592],[78.139,16.632],[78.14,16.688],[78.169,16.719],[78.15,16.736],[78.154,16.747],[78.198,16.747],[78.235,16.732],[78.276,16.688],[78.304,16.681],[78.319,16.654],[78.355,16.645],[78.365,16.663],[78.394,16.664],[78.42,16.691],[78.416,16.732],[78.452,16.731],[78.455,16.751],[78.482,16.76],[78.463,16.779],[78.43,16.789],[78.431,16.835],[78.415,16.828],[78.4,16.796],[78.328,16.792],[78.31,16.834],[78.319,16.876],[78.371,16.888],[78.37,16.902],[78.353,16.909],[78.384,16.954],[78.406,17.014],[78.456,16.999],[78.459,16.985],[78.48,16.995],[78.494,17.018],[78.524,16.994],[78.55,16.987]]]]}},{"type":"Feature","properties":{"pc_id":2813,"st_code":36,"st_name":"Telangana","pc_no":13,"pc_name":"Nalgonda","pc_name_hi":"नालगौंडा","pc_category":"GEN","wikidata_qid":"Q3763969","status":null,"2019_election_phase":1,"2019_election_date":"2019-04-11"},"geometry":{"type":"MultiPolygon","coordinates":[[[[79.78,17.323],[79.804,17.324],[79.83,17.271],[79.84,17.279],[79.901,17.254],[79.901,17.212],[79.876,17.194],[79.881,17.174],[79.911,17.15],[79.918,17.13],[79.947,17.135],[79.962,17.125],[79.997,17.076],[80.039,17.053],[80.037,17.024],[80.062,17.01],[80.051,16.937],[80.041,16.92],[80.017,16.917],[80.002,16.87],[80.018,16.854],[80.047,16.853],[80.048,16.833],[80.073,16.818],[80.069,16.796],[80.052,16.743],[80.031,16.715],[79.998,16.702],[79.963,16.644],[79.91,16.634],[79.894,16.65],[79.878,16.698],[79.851,16.706],[79.817,16.692],[79.793,16.726],[79.774,16.731],[79.744,16.719],[79.723,16.691],[79.681,16.695],[79.633,16.661],[79.597,16.673],[79.543,16.633],[79.504,16.636],[79.485,16.623],[79.447,16.62],[79.418,16.58],[79.337,16.582],[79.288,16.561],[79.259,16.567],[79.245,16.533],[79.219,16.507],[79.215,16.483],[79.233,16.46],[79.212,16.448],[79.211,16.357],[79.172,16.369],[79.154,16.382],[79.152,16.4],[79.092,16.422],[79.047,16.459],[78.939,16.511],[78.91,16.551],[78.869,16.544],[78.855,16.551],[78.8,16.514],[78.765,16.534],[78.718,16.54],[78.681,16.54],[78.661,16.525],[78.645,16.535],[78.612,16.52],[78.613,16.532],[78.633,16.537],[78.638,16.55],[78.666,16.543],[78.669,16.572],[78.68,16.553],[78.713,16.578],[78.699,16.619],[78.68,16.624],[78.667,16.652],[78.714,16.651],[78.71,16.679],[78.741,16.707],[78.755,16.707],[78.757,16.748],[78.78,16.746],[78.795,16.785],[78.802,16.827],[78.776,16.844],[78.781,16.869],[78.772,16.883],[78.749,16.853],[78.73,16.865],[78.729,16.895],[78.745,16.915],[78.696,16.936],[78.702,16.965],[78.757,16.97],[78.754,16.985],[78.775,16.982],[78.79,16.977],[78.79,16.961],[78.875,16.919],[78.879,16.867],[78.933,16.842],[78.933,16.82],[78.946,16.808],[78.94,16.774],[78.997,16.755],[79.016,16.773],[79.017,16.804],[79.038,16.834],[79.031,16.859],[79.061,16.902],[79.06,16.932],[79.102,16.947],[79.101,16.978],[79.128,17.027],[79.134,17.088],[79.187,17.147],[79.231,17.154],[79.25,17.17],[79.259,17.136],[79.285,17.161],[79.325,17.145],[79.337,17.126],[79.377,17.148],[79.404,17.122],[79.415,17.095],[79.433,17.095],[79.455,17.118],[79.484,17.125],[79.502,17.092],[79.541,17.125],[79.565,17.098],[79.592,17.087],[79.581,17.129],[79.49,17.294],[79.567,17.282],[79.587,17.29],[79.595,17.329],[79.637,17.307],[79.652,17.328],[79.674,17.328],[79.693,17.282],[79.705,17.29],[79.71,17.318],[79.733,17.332],[79.756,17.324],[79.764,17.339],[79.78,17.323]]]]}},{"type":"Feature","properties":{"pc_id":2814,"st_code":36,"st_name":"Telangana","pc_no":14,"pc_name":"Bhuvanagiri","pc_name_hi":"भोंगीर","pc_category":"GEN","wikidata_qid":"Q4901952","status":null,"2019_election_phase":1,"2019_election_date":"2019-04-11"},"geometry":{"type":"MultiPolygon","coordinates":[[[[78.992,18.012],[79.014,18.003],[79.024,18.024],[79.052,18.033],[79.074,18.011],[79.089,18.028],[79.11,18.027],[79.108,18.013],[79.153,17.992],[79.192,18.002],[79.233,17.995],[79.221,17.961],[79.245,17.94],[79.242,17.903],[79.263,17.867],[79.238,17.858],[79.208,17.869],[79.185,17.841],[79.196,17.835],[79.192,17.782],[79.21,17.751],[79.199,17.745],[79.203,17.73],[79.172,17.703],[79.156,17.703],[79.13,17.67],[79.135,17.643],[79.157,17.623],[79.151,17.588],[79.167,17.575],[79.209,17.624],[79.232,17.563],[79.258,17.56],[79.279,17.576],[79.328,17.525],[79.413,17.499],[79.43,17.517],[79.472,17.515],[79.521,17.495],[79.542,17.527],[79.566,17.498],[79.595,17.499],[79.594,17.528],[79.603,17.499],[79.621,17.501],[79.639,17.487],[79.655,17.494],[79.657,17.471],[79.7,17.456],[79.723,17.431],[79.745,17.428],[79.754,17.438],[79.762,17.408],[79.797,17.394],[79.778,17.369],[79.796,17.354],[79.793,17.326],[79.804,17.325],[79.783,17.322],[79.764,17.339],[79.756,17.324],[79.733,17.332],[79.71,17.318],[79.705,17.29],[79.693,17.282],[79.674,17.328],[79.652,17.328],[79.637,17.307],[79.595,17.329],[79.587,17.29],[79.567,17.282],[79.49,17.294],[79.581,17.129],[79.592,17.087],[79.565,17.098],[79.541,17.125],[79.502,17.092],[79.484,17.125],[79.455,17.118],[79.433,17.095],[79.415,17.095],[79.404,17.122],[79.377,17.148],[79.337,17.126],[79.325,17.145],[79.285,17.161],[79.259,17.136],[79.25,17.17],[79.231,17.154],[79.187,17.147],[79.134,17.088],[79.128,17.027],[79.101,16.978],[79.102,16.947],[79.06,16.932],[79.061,16.902],[79.031,16.859],[79.038,16.834],[79.017,16.804],[79.016,16.773],[78.991,16.754],[78.94,16.774],[78.946,16.808],[78.933,16.82],[78.933,16.842],[78.879,16.867],[78.875,16.919],[78.79,16.961],[78.79,16.977],[78.757,16.985],[78.757,16.97],[78.707,16.968],[78.691,16.932],[78.652,16.959],[78.615,16.965],[78.585,16.955],[78.568,16.966],[78.563,16.978],[78.58,17.018],[78.556,17.038],[78.577,17.048],[78.576,17.101],[78.558,17.114],[78.579,17.164],[78.567,17.18],[78.552,17.179],[78.532,17.211],[78.566,17.228],[78.556,17.244],[78.568,17.292],[78.551,17.325],[78.585,17.322],[78.619,17.36],[78.672,17.387],[78.736,17.377],[78.742,17.401],[78.754,17.405],[78.76,17.427],[78.751,17.44],[78.76,17.46],[78.751,17.471],[78.717,17.469],[78.709,17.477],[78.712,17.521],[78.695,17.551],[78.706,17.558],[78.677,17.576],[78.691,17.585],[78.687,17.595],[78.702,17.612],[78.685,17.622],[78.711,17.64],[78.724,17.668],[78.789,17.702],[78.782,17.711],[78.816,17.702],[78.822,17.74],[78.841,17.752],[78.859,17.75],[78.877,17.839],[78.868,17.869],[78.831,17.879],[78.827,17.893],[78.851,17.906],[78.872,17.956],[78.88,17.964],[78.907,17.961],[78.927,17.998],[78.944,17.998],[78.963,18.037],[78.992,18.012]]]]}},{"type":"Feature","properties":{"pc_id":2815,"st_code":36,"st_name":"Telangana","pc_no":15,"pc_name":"Warangal","pc_name_hi":"वारंगल","pc_category":"SC","wikidata_qid":"Q3763938","status":null,"2019_election_phase":1,"2019_election_date":"2019-04-11"},"geometry":{"type":"MultiPolygon","coordinates":[[[[79.893,18.522],[79.943,18.505],[79.958,18.512],[79.962,18.483],[79.985,18.501],[80.038,18.517],[80.086,18.519],[80.08,18.499],[80.052,18.481],[80.117,18.466],[80.076,18.427],[80.046,18.429],[80.03,18.442],[80.025,18.396],[80.004,18.372],[79.926,18.388],[79.886,18.384],[79.89,18.361],[79.948,18.316],[79.935,18.284],[79.885,18.288],[79.859,18.233],[79.857,18.194],[79.841,18.182],[79.851,18.143],[79.827,18.094],[79.81,18.075],[79.804,18.087],[79.782,18.082],[79.794,18.043],[79.772,18.054],[79.749,18.024],[79.776,17.999],[79.782,17.953],[79.773,17.936],[79.791,17.908],[79.785,17.885],[79.754,17.853],[79.782,17.802],[79.75,17.729],[79.767,17.696],[79.74,17.694],[79.724,17.712],[79.714,17.708],[79.727,17.677],[79.716,17.667],[79.722,17.618],[79.737,17.581],[79.718,17.527],[79.663,17.519],[79.657,17.491],[79.639,17.487],[79.621,17.501],[79.603,17.499],[79.59,17.529],[79.595,17.499],[79.566,17.498],[79.542,17.527],[79.521,17.495],[79.472,17.515],[79.43,17.517],[79.413,17.499],[79.328,17.525],[79.279,17.576],[79.258,17.56],[79.232,17.563],[79.209,17.624],[79.167,17.575],[79.151,17.588],[79.157,17.623],[79.135,17.643],[79.13,17.67],[79.156,17.703],[79.172,17.703],[79.203,17.73],[79.199,17.745],[79.21,17.751],[79.192,17.782],[79.196,17.835],[79.185,17.841],[79.208,17.869],[79.238,17.858],[79.263,17.867],[79.242,17.903],[79.245,17.94],[79.221,17.961],[79.227,17.981],[79.263,17.984],[79.262,18.003],[79.282,18.001],[79.3,18.025],[79.367,18.015],[79.446,18.067],[79.467,18.114],[79.488,18.098],[79.51,18.106],[79.552,18.1],[79.561,18.121],[79.581,18.121],[79.573,18.135],[79.602,18.142],[79.613,18.188],[79.578,18.242],[79.582,18.257],[79.563,18.263],[79.559,18.3],[79.576,18.309],[79.58,18.413],[79.567,18.424],[79.588,18.446],[79.587,18.462],[79.602,18.473],[79.612,18.464],[79.622,18.485],[79.645,18.475],[79.681,18.494],[79.729,18.489],[79.773,18.434],[79.789,18.434],[79.819,18.41],[79.823,18.428],[79.8,18.469],[79.855,18.487],[79.911,18.414],[79.926,18.45],[79.894,18.468],[79.878,18.495],[79.876,18.522],[79.893,18.522]]]]}},{"type":"Feature","properties":{"pc_id":2816,"st_code":36,"st_name":"Telangana","pc_no":16,"pc_name":"Mahabubabad","pc_name_hi":"महबूबाबाद","pc_category":"ST","wikidata_qid":"Q6732720","status":null,"2019_election_phase":1,"2019_election_date":"2019-04-11"},"geometry":{"type":"MultiPolygon","coordinates":[[[[80.495,18.627],[80.515,18.619],[80.534,18.588],[80.638,18.523],[80.655,18.476],[80.705,18.44],[80.699,18.421],[80.735,18.413],[80.72,18.391],[80.732,18.355],[80.758,18.292],[80.794,18.254],[80.737,18.222],[80.737,18.177],[80.799,18.168],[80.824,18.191],[80.824,18.236],[80.837,18.239],[80.866,18.23],[80.873,18.211],[80.853,18.202],[80.867,18.137],[80.914,18.141],[80.958,18.174],[80.979,18.175],[80.979,18.151],[80.956,18.129],[80.949,18.083],[80.98,18.003],[80.998,17.917],[80.996,17.848],[81.018,17.791],[81.073,17.786],[81.166,17.858],[81.265,17.81],[81.354,17.812],[81.392,17.794],[81.397,17.82],[81.416,17.813],[81.434,17.832],[81.444,17.825],[81.474,17.838],[81.49,17.813],[81.564,17.826],[81.574,17.837],[81.617,17.822],[81.642,17.842],[81.662,17.882],[81.686,17.885],[81.698,17.901],[81.71,17.872],[81.763,17.903],[81.807,17.869],[81.811,17.86],[81.79,17.84],[81.764,17.827],[81.747,17.832],[81.712,17.81],[81.699,17.782],[81.634,17.774],[81.583,17.732],[81.582,17.693],[81.516,17.6],[81.537,17.584],[81.512,17.545],[81.51,17.519],[81.525,17.505],[81.516,17.484],[81.432,17.466],[81.366,17.496],[81.306,17.494],[81.264,17.555],[81.178,17.569],[81.109,17.606],[81.026,17.601],[80.982,17.568],[80.969,17.593],[80.922,17.583],[80.879,17.605],[80.842,17.596],[80.768,17.619],[80.764,17.676],[80.742,17.693],[80.731,17.728],[80.746,17.785],[80.716,17.846],[80.675,17.849],[80.609,17.845],[80.597,17.836],[80.594,17.795],[80.577,17.785],[80.569,17.761],[80.609,17.739],[80.615,17.722],[80.58,17.733],[80.556,17.705],[80.594,17.661],[80.593,17.602],[80.622,17.586],[80.622,17.567],[80.577,17.561],[80.54,17.57],[80.531,17.547],[80.547,17.536],[80.546,17.523],[80.503,17.502],[80.41,17.52],[80.398,17.546],[80.349,17.499],[80.324,17.568],[80.253,17.566],[80.252,17.542],[80.227,17.544],[80.24,17.525],[80.235,17.486],[80.215,17.471],[80.217,17.442],[80.255,17.444],[80.246,17.478],[80.276,17.453],[80.301,17.476],[80.367,17.446],[80.357,17.4],[80.318,17.361],[80.244,17.372],[80.209,17.401],[80.189,17.391],[80.166,17.407],[80.161,17.377],[80.14,17.393],[80.12,17.383],[80.108,17.359],[80.086,17.367],[80.058,17.346],[79.993,17.364],[79.992,17.399],[79.97,17.407],[79.937,17.395],[79.931,17.366],[79.903,17.376],[79.896,17.357],[79.879,17.354],[79.875,17.331],[79.832,17.336],[79.793,17.326],[79.796,17.354],[79.778,17.369],[79.797,17.394],[79.762,17.408],[79.752,17.44],[79.745,17.428],[79.728,17.428],[79.7,17.456],[79.657,17.471],[79.66,17.517],[79.713,17.525],[79.732,17.549],[79.737,17.581],[79.716,17.667],[79.727,17.677],[79.715,17.71],[79.746,17.692],[79.768,17.702],[79.749,17.716],[79.75,17.729],[79.782,17.802],[79.754,17.853],[79.785,17.885],[79.791,17.908],[79.773,17.936],[79.782,17.953],[79.776,17.999],[79.749,18.024],[79.772,18.054],[79.794,18.043],[79.782,18.082],[79.804,18.087],[79.81,18.075],[79.827,18.094],[79.851,18.143],[79.841,18.182],[79.857,18.194],[79.859,18.233],[79.885,18.288],[79.935,18.284],[79.948,18.316],[79.89,18.361],[79.886,18.384],[79.926,18.388],[80.004,18.372],[80.026,18.403],[80.057,18.402],[80.076,18.389],[80.081,18.421],[80.099,18.432],[80.151,18.414],[80.142,18.38],[80.173,18.349],[80.217,18.39],[80.23,18.553],[80.269,18.589],[80.354,18.594],[80.375,18.611],[80.388,18.597],[80.454,18.629],[80.495,18.627]]]]}},{"type":"Feature","properties":{"pc_id":2817,"st_code":36,"st_name":"Telangana","pc_no":17,"pc_name":"Khammam","pc_name_hi":"खम्माम","pc_category":"GEN","wikidata_qid":"Q3764091","status":null,"2019_election_phase":1,"2019_election_date":"2019-04-11"},"geometry":{"type":"MultiPolygon","coordinates":[[[[80.675,17.849],[80.716,17.846],[80.746,17.785],[80.731,17.728],[80.742,17.693],[80.764,17.676],[80.768,17.619],[80.842,17.596],[80.879,17.605],[80.922,17.583],[80.969,17.593],[80.982,17.568],[81.026,17.601],[81.109,17.606],[81.178,17.569],[81.264,17.555],[81.306,17.494],[81.366,17.496],[81.432,17.466],[81.496,17.477],[81.503,17.464],[81.424,17.368],[81.38,17.364],[81.354,17.378],[81.352,17.395],[81.334,17.399],[81.305,17.346],[81.274,17.318],[81.19,17.325],[81.177,17.288],[81.188,17.255],[81.174,17.231],[81.079,17.215],[81.055,17.225],[81.031,17.191],[80.998,17.191],[80.941,17.22],[80.919,17.22],[80.924,17.158],[80.88,17.161],[80.88,17.134],[80.868,17.123],[80.876,17.106],[80.868,17.081],[80.877,17.07],[80.845,17.04],[80.739,17.08],[80.699,17.084],[80.673,17.067],[80.654,17.069],[80.67,17.101],[80.58,17.153],[80.563,17.133],[80.514,17.122],[80.506,17.069],[80.491,17.051],[80.471,17.051],[80.465,17.03],[80.439,17.038],[80.417,17.074],[80.419,17.092],[80.409,17.092],[80.386,17.068],[80.407,17.016],[80.388,17.009],[80.365,16.975],[80.447,16.956],[80.493,16.927],[80.497,16.955],[80.526,16.948],[80.533,16.962],[80.602,16.919],[80.587,16.904],[80.596,16.885],[80.569,16.87],[80.563,16.833],[80.613,16.794],[80.597,16.793],[80.569,16.769],[80.465,16.795],[80.465,16.82],[80.428,16.838],[80.426,16.85],[80.383,16.865],[80.378,16.853],[80.408,16.849],[80.404,16.832],[80.382,16.816],[80.374,16.852],[80.341,16.86],[80.344,16.875],[80.322,16.879],[80.316,16.949],[80.303,16.954],[80.307,16.974],[80.293,16.977],[80.294,16.997],[80.283,17.008],[80.264,16.998],[80.226,17.016],[80.211,17.011],[80.197,17.044],[80.187,17.02],[80.153,17.007],[80.141,16.99],[80.095,16.99],[80.091,16.968],[80.056,16.971],[80.062,17.01],[80.037,17.024],[80.039,17.053],[79.997,17.076],[79.947,17.135],[79.918,17.13],[79.911,17.15],[79.881,17.174],[79.876,17.194],[79.901,17.212],[79.901,17.254],[79.84,17.279],[79.83,17.271],[79.802,17.314],[79.804,17.325],[79.832,17.336],[79.875,17.331],[79.879,17.354],[79.896,17.357],[79.903,17.376],[79.931,17.366],[79.937,17.395],[79.97,17.407],[79.992,17.399],[79.993,17.364],[80.058,17.346],[80.086,17.367],[80.108,17.359],[80.12,17.383],[80.14,17.393],[80.161,17.377],[80.166,17.407],[80.189,17.391],[80.209,17.401],[80.244,17.372],[80.318,17.361],[80.357,17.4],[80.367,17.446],[80.301,17.476],[80.276,17.453],[80.246,17.478],[80.255,17.444],[80.217,17.442],[80.215,17.471],[80.235,17.486],[80.24,17.525],[80.227,17.544],[80.252,17.542],[80.253,17.566],[80.324,17.568],[80.349,17.499],[80.398,17.546],[80.41,17.52],[80.503,17.502],[80.546,17.523],[80.547,17.536],[80.531,17.547],[80.54,17.57],[80.577,17.561],[80.622,17.567],[80.622,17.586],[80.593,17.602],[80.594,17.661],[80.556,17.705],[80.58,17.733],[80.615,17.722],[80.609,17.739],[80.569,17.761],[80.577,17.785],[80.594,17.795],[80.597,17.836],[80.609,17.845],[80.675,17.849]]]]}}]}